[{"OBJECT_NAME":"STARLINK-30703","OBJECT_ID":"2023-148V","EPOCH":"2026-03-09T04:08:09.879648","MEAN_MOTION":15.30189336,"ECCENTRICITY":9.894e-5,"INCLINATION":53.163,"RA_OF_ASC_NODE":16.5742,"ARG_OF_PERICENTER":92.0491,"MEAN_ANOMALY":268.0623,"EPHEMERIS_TYPE":0,"CLASSIFICATION_TYPE":"U","NORAD_CAT_ID":57954,"ELEMENT_SET_NO":999,"REV_AT_EPOCH":13848,"BSTAR":7.549971e-6,"MEAN_MOTION_DOT":-1.35e-6,"MEAN_MOTION_DDOT":0},{"OBJECT_NAME":"TRANSPORTER-12 OBJECT AZ","OBJECT_ID":"2025-009AZ","EPOCH":"2026-03-09T17:02:46.667040","MEAN_MOTION":15.30349724,"ECCENTRICITY":9.87e-5,"INCLINATION":97.3981,"RA_OF_ASC_NODE":151.9913,"ARG_OF_PERICENTER":45.3581,"MEAN_ANOMALY":314.774,"EPHEMERIS_TYPE":0,"CLASSIFICATION_TYPE":"U","NORAD_CAT_ID":62656,"ELEMENT_SET_NO":999,"REV_AT_EPOCH":6379,"BSTAR":0.00054902545,"MEAN_MOTION_DOT":0.00016057,"MEAN_MOTION_DDOT":0}]
